{"type": "FeatureCollection", "features": [ {"type": "Feature", "properties": {"norad_id": 34400, "name": "COSMOS 2251 DEB", "group": "cosmos-2251-debris", "lat": 20.36268840529738, "lon": -156.39381094637676, "alt_km": 412.8487584525119, "timestamp": "2025-12-09T20:37:09.683896+00:00", "meta": {"OBJECT_NAME": "COSMOS 2251 DEB", "OBJECT_ID": "1993-036QR", "EPOCH": "2025-12-09T13:44:51.088992", "MEAN_MOTION": 15.51565229, "ECCENTRICITY": 0.00059483, "INCLINATION": 73.9665, "RA_OF_ASC_NODE": 30.3656, "ARG_OF_PERICENTER": 268.7226, "MEAN_ANOMALY": 91.3306, "EPHEMERIS_TYPE": 0, "CLASSIFICATION_TYPE": "U", "NORAD_CAT_ID": 34400, "ELEMENT_SET_NO": 999, "REV_AT_EPOCH": 89925, "BSTAR": 0.0040468302, "MEAN_MOTION_DOT": 0.00247678, "MEAN_MOTION_DDOT": 0}, "tle": {"line1": "1 34400U 93036QR  25343.57281353  .00247678  00000+0  40468-2 0  9990", "line2": "2 34400  73.9665  30.3656 0005948 268.7226  91.3306 15.51565229899257"}}, "geometry": {"type": "Point", "coordinates": [-156.39381094637676, 20.36268840529738]}}, {"type": "Feature", "properties": {"norad_id": 34409, "name": "COSMOS 2251 DEB", "group": "cosmos-2251-debris", "lat": -33.82911470535743, "lon": -58.73163313067147, "alt_km": 679.184701042037, "timestamp": "2025-12-09T20:37:09.683907+00:00", "meta": {"OBJECT_NAME": "COSMOS 2251 DEB", "OBJECT_ID": "1993-036RA", "EPOCH": "2025-12-09T14:44:57.177888", "MEAN_MOTION": 14.58015689, "ECCENTRICITY": 0.00796857, "INCLINATION": 74.063, "RA_OF_ASC_NODE": 312.773, "ARG_OF_PERICENTER": 27.9278, "MEAN_ANOMALY": 94.3156, "EPHEMERIS_TYPE": 0, "CLASSIFICATION_TYPE": "U", "NORAD_CAT_ID": 34409, "ELEMENT_SET_NO": 999, "REV_AT_EPOCH": 89147, "BSTAR": 0.00044337053, "MEAN_MOTION_DOT": 2.098e-05, "MEAN_MOTION_DDOT": 0}, "tle": {"line1": "1 34409U 93036RA  25343.61455067  .00002098  00000+0  44337-3 0  9994", "line2": "2 34409  74.0630 312.7730 0079685  27.9278  94.3156 14.58015689891479"}}, "geometry": {"type": "Point", "coordinates": [-58.73163313067147, -33.82911470535743]}}, {"type": "Feature", "properties": {"norad_id": 34410, "name": "COSMOS 2251 DEB", "group": "cosmos-2251-debris", "lat": 72.9809111198237, "lon": 15.404432033077748, "alt_km": 489.12065592933504, "timestamp": "2025-12-09T20:37:09.683917+00:00", "meta": {"OBJECT_NAME": "COSMOS 2251 DEB", "OBJECT_ID": "1993-036RB", "EPOCH": "2025-12-08T19:02:13.915104", "MEAN_MOTION": 15.18330254, "ECCENTRICITY": 0.00209567, "INCLINATION": 73.739, "RA_OF_ASC_NODE": 270.1458, "ARG_OF_PERICENTER": 112.3147, "MEAN_ANOMALY": 278.6546, "EPHEMERIS_TYPE": 0, "CLASSIFICATION_TYPE": "U", "NORAD_CAT_ID": 34410, "ELEMENT_SET_NO": 999, "REV_AT_EPOCH": 89714, "BSTAR": 0.0033403576, "MEAN_MOTION_DOT": 0.00069601, "MEAN_MOTION_DDOT": 0}, "tle": {"line1": "1 34410U 93036RB  25342.79321661  .00069601  00000+0  33404-2 0  9991", "line2": "2 34410  73.7390 270.1458 0020956 112.3147 278.6546 15.18330254897140"}}, "geometry": {"type": "Point", "coordinates": [15.404432033077748, 72.9809111198237]}}, {"type": "Feature", "properties": {"norad_id": 34412, "name": "COSMOS 2251 DEB", "group": "cosmos-2251-debris", "lat": -66.90619470192306, "lon": -72.44027039821741, "alt_km": 841.3890463955031, "timestamp": "2025-12-09T20:37:09.683928+00:00", "meta": {"OBJECT_NAME": "COSMOS 2251 DEB", "OBJECT_ID": "1993-036RD", "EPOCH": "2025-12-08T23:23:24.222624", "MEAN_MOTION": 14.47068319, "ECCENTRICITY": 0.0187102, "INCLINATION": 73.9489, "RA_OF_ASC_NODE": 331.6897, "ARG_OF_PERICENTER": 67.6677, "MEAN_ANOMALY": 294.4194, "EPHEMERIS_TYPE": 0, "CLASSIFICATION_TYPE": "U", "NORAD_CAT_ID": 34412, "ELEMENT_SET_NO": 999, "REV_AT_EPOCH": 87596, "BSTAR": 0.0012474, "MEAN_MOTION_DOT": 5.633e-05, "MEAN_MOTION_DDOT": 0}, "tle": {"line1": "1 34412U 93036RD  25342.97458591  .00005633  00000+0  12474-2 0  9995", "line2": "2 34412  73.9489 331.6897 0187102  67.6677 294.4194 14.47068319875962"}}, "geometry": {"type": "Point", "coordinates": [-72.44027039821741, -66.90619470192306]}}, {"type": "Feature", "properties": {"norad_id": 34413, "name": "COSMOS 2251 DEB", "group": "cosmos-2251-debris", "lat": -61.35688451556003, "lon": 121.72646637056195, "alt_km": 813.7968174075804, "timestamp": "2025-12-09T20:37:09.683939+00:00", "meta": {"OBJECT_NAME": "COSMOS 2251 DEB", "OBJECT_ID": "1993-036RE", "EPOCH": "2025-12-09T04:55:13.938816", "MEAN_MOTION": 14.29051962, "ECCENTRICITY": 0.00908663, "INCLINATION": 74.0317, "RA_OF_ASC_NODE": 271.2975, "ARG_OF_PERICENTER": 348.4182, "MEAN_ANOMALY": 134.6327, "EPHEMERIS_TYPE": 0, "CLASSIFICATION_TYPE": "U", "NORAD_CAT_ID": 34413, "ELEMENT_SET_NO": 999, "REV_AT_EPOCH": 87080, "BSTAR": 0.0021262677, "MEAN_MOTION_DOT": 5.607e-05, "MEAN_MOTION_DDOT": 0}, "tle": {"line1": "1 34413U 93036RE  25343.20502244  .00005607  00000+0  21263-2 0  9995", "line2": "2 34413  74.0317 271.2975 0090866 348.4182 134.6327 14.29051962870809"}}, "geometry": {"type": "Point", "coordinates": [121.72646637056195, -61.35688451556003]}}, {"type": "Feature", "properties": {"norad_id": 34420, "name": "COSMOS 2251 DEB", "group": "cosmos-2251-debris", "lat": -60.93093226069047, "lon": 78.53092025155712, "alt_km": 638.964345307495, "timestamp": "2025-12-09T20:37:09.683950+00:00", "meta": {"OBJECT_NAME": "COSMOS 2251 DEB", "OBJECT_ID": "1993-036RM", "EPOCH": "2025-12-09T14:27:09.977184", "MEAN_MOTION": 14.68283029, "ECCENTRICITY": 0.01067614, "INCLINATION": 74.0335, "RA_OF_ASC_NODE": 110.0278, "ARG_OF_PERICENTER": 231.8901, "MEAN_ANOMALY": 144.1038, "EPHEMERIS_TYPE": 0, "CLASSIFICATION_TYPE": "U", "NORAD_CAT_ID": 34420, "ELEMENT_SET_NO": 999, "REV_AT_EPOCH": 89724, "BSTAR": 0.00043285663, "MEAN_MOTION_DOT": 2.687e-05, "MEAN_MOTION_DDOT": 0}, "tle": {"line1": "1 34420U 93036RM  25343.60219881  .00002687  00000+0  43286-3 0  9994", "line2": "2 34420  74.0335 110.0278 0106761 231.8901 144.1038 14.68283029897245"}}, "geometry": {"type": "Point", "coordinates": [78.53092025155712, -60.93093226069047]}}, {"type": "Feature", "properties": {"norad_id": 34425, "name": "COSMOS 2251 DEB", "group": "cosmos-2251-debris", "lat": 73.15663010223282, "lon": 131.21704479991521, "alt_km": 682.8327741284447, "timestamp": "2025-12-09T20:37:09.683960+00:00", "meta": {"OBJECT_NAME": "COSMOS 2251 DEB", "OBJECT_ID": "1993-036RS", "EPOCH": "2025-12-09T15:18:21.162816", "MEAN_MOTION": 14.62101051, "ECCENTRICITY": 0.00250363, "INCLINATION": 74.02, "RA_OF_ASC_NODE": 60.4617, "ARG_OF_PERICENTER": 187.7063, "MEAN_ANOMALY": 172.3723, "EPHEMERIS_TYPE": 0, "CLASSIFICATION_TYPE": "U", "NORAD_CAT_ID": 34425, "ELEMENT_SET_NO": 999, "REV_AT_EPOCH": 88695, "BSTAR": 0.0010003293, "MEAN_MOTION_DOT": 5.023e-05, "MEAN_MOTION_DDOT": 0}, "tle": {"line1": "1 34425U 93036RS  25343.63774494  .00005023  00000+0  10003-2 0  9995", "line2": "2 34425  74.0200  60.4617 0025036 187.7063 172.3723 14.62101051886957"}}, "geometry": {"type": "Point", "coordinates": [131.21704479991521, 73.15663010223282]}}, {"type": "Feature", "properties": {"norad_id": 34429, "name": "COSMOS 2251 DEB", "group": "cosmos-2251-debris", "lat": 43.816520105349035, "lon": -169.71646803778341, "alt_km": 438.4221096711617, "timestamp": "2025-12-09T20:37:09.683971+00:00", "meta": {"OBJECT_NAME": "COSMOS 2251 DEB", "OBJECT_ID": "1993-036RW", "EPOCH": "2025-12-09T12:45:33.143040", "MEAN_MOTION": 15.39803431, "ECCENTRICITY": 0.00064361, "INCLINATION": 73.971, "RA_OF_ASC_NODE": 174.9804, "ARG_OF_PERICENTER": 17.7657, "MEAN_ANOMALY": 13.6083, "EPHEMERIS_TYPE": 0, "CLASSIFICATION_TYPE": "U", "NORAD_CAT_ID": 34429, "ELEMENT_SET_NO": 999, "REV_AT_EPOCH": 89399, "BSTAR": 0.0057888052, "MEAN_MOTION_DOT": 0.0023696, "MEAN_MOTION_DDOT": 0}, "tle": {"line1": "1 34429U 93036RW  25343.53163360  .00236960  00000+0  57888-2 0  9990", "line2": "2 34429  73.9710 174.9804 0006436  17.7657  13.6083 15.39803431893992"}}, "geometry": {"type": "Point", "coordinates": [-169.71646803778341, 43.816520105349035]}}, {"type": "Feature", "properties": {"norad_id": 34430, "name": "COSMOS 2251 DEB", "group": "cosmos-2251-debris", "lat": 71.16087959337403, "lon": 71.73931604302467, "alt_km": 745.6524267056193, "timestamp": "2025-12-09T20:37:09.683981+00:00", "meta": {"OBJECT_NAME": "COSMOS 2251 DEB", "OBJECT_ID": "1993-036RX", "EPOCH": "2025-12-09T15:09:24.802848", "MEAN_MOTION": 14.39617534, "ECCENTRICITY": 0.0060202, "INCLINATION": 74.0523, "RA_OF_ASC_NODE": 309.0966, "ARG_OF_PERICENTER": 19.4795, "MEAN_ANOMALY": 340.864, "EPHEMERIS_TYPE": 0, "CLASSIFICATION_TYPE": "U", "NORAD_CAT_ID": 34430, "ELEMENT_SET_NO": 999, "REV_AT_EPOCH": 87910, "BSTAR": 0.00090432059, "MEAN_MOTION_DOT": 2.862e-05, "MEAN_MOTION_DDOT": 0}, "tle": {"line1": "1 34430U 93036RX  25343.63153707  .00002862  00000+0  90432-3 0  9992", "line2": "2 34430  74.0523 309.0966 0060202  19.4795 340.8640 14.39617534879108"}}, "geometry": {"type": "Point", "coordinates": [71.73931604302467, 71.16087959337403]}}, {"type": "Feature", "properties": {"norad_id": 34431, "name": "COSMOS 2251 DEB", "group": "cosmos-2251-debris", "lat": 62.13396559186897, "lon": -32.27152367460013, "alt_km": 760.239576024981, "timestamp": "2025-12-09T20:37:09.683992+00:00", "meta": {"OBJECT_NAME": "COSMOS 2251 DEB", "OBJECT_ID": "1993-036RY", "EPOCH": "2025-12-09T13:22:04.378368", "MEAN_MOTION": 14.28758584, "ECCENTRICITY": 0.00684427, "INCLINATION": 74.0746, "RA_OF_ASC_NODE": 180.9607, "ARG_OF_PERICENTER": 167.5266, "MEAN_ANOMALY": 192.7598, "EPHEMERIS_TYPE": 0, "CLASSIFICATION_TYPE": "U", "NORAD_CAT_ID": 34431, "ELEMENT_SET_NO": 999, "REV_AT_EPOCH": 87097, "BSTAR": 0.00090818809, "MEAN_MOTION_DOT": 2.32e-05, "MEAN_MOTION_DDOT": 0}, "tle": {"line1": "1 34431U 93036RY  25343.55699512  .00002320  00000+0  90819-3 0  9991", "line2": "2 34431  74.0746 180.9607 0068442 167.5266 192.7598 14.28758584870977"}}, "geometry": {"type": "Point", "coordinates": [-32.27152367460013, 62.13396559186897]}}]}